[{"OBJECT_NAME":"ATLAS CENTAUR 2","OBJECT_ID":"1963-047A","EPOCH":"2026-04-02T13:56:26.348064","MEAN_MOTION":14.12172565,"ECCENTRICITY":0.05472626,"INCLINATION":30.3579,"RA_OF_ASC_NODE":62.1151,"ARG_OF_PERICENTER":290.8544,"MEAN_ANOMALY":63.4303,"EPHEMERIS_TYPE":0,"CLASSIFICATION_TYPE":"U","NORAD_CAT_ID":694,"ELEMENT_SET_NO":999,"REV_AT_EPOCH":13500,"BSTAR":0.00039319631,"MEAN_MOTION_DOT":3.323e-5,"MEAN_MOTION_DDOT":0},{"OBJECT_NAME":"THOR AGENA D R/B","OBJECT_ID":"1964-002A","EPOCH":"2026-04-02T20:57:08.654976","MEAN_MOTION":14.34033598,"ECCENTRICITY":0.0032822,"INCLINATION":99.121,"RA_OF_ASC_NODE":107.528,"ARG_OF_PERICENTER":186.3586,"MEAN_ANOMALY":173.7185,"EPHEMERIS_TYPE":0,"CLASSIFICATION_TYPE":"U","NORAD_CAT_ID":733,"ELEMENT_SET_NO":999,"REV_AT_EPOCH":24176,"BSTAR":0.00012664,"MEAN_MOTION_DOT":3.07e-6,"MEAN_MOTION_DDOT":0},{"OBJECT_NAME":"SL-3 R/B","OBJECT_ID":"1964-053B","EPOCH":"2026-04-02T20:22:34.864032","MEAN_MOTION":14.6138603,"ECCENTRICITY":0.008057,"INCLINATION":65.0756,"RA_OF_ASC_NODE":260.4035,"ARG_OF_PERICENTER":284.6183,"MEAN_ANOMALY":74.5993,"EPHEMERIS_TYPE":0,"CLASSIFICATION_TYPE":"U","NORAD_CAT_ID":877,"ELEMENT_SET_NO":999,"REV_AT_EPOCH":27032,"BSTAR":0.00010145,"MEAN_MOTION_DOT":4.0e-6,"MEAN_MOTION_DDOT":0},{"OBJECT_NAME":"SL-8 R/B","OBJECT_ID":"1967-045B","EPOCH":"2026-04-02T20:45:17.799840","MEAN_MOTION":14.45641967,"ECCENTRICITY":0.0065004,"INCLINATION":74.0104,"RA_OF_ASC_NODE":302.9411,"ARG_OF_PERICENTER":303.8934,"MEAN_ANOMALY":55.6051,"EPHEMERIS_TYPE":0,"CLASSIFICATION_TYPE":"U","NORAD_CAT_ID":2802,"ELEMENT_SET_NO":999,"REV_AT_EPOCH":9251,"BSTAR":0.00012506,"MEAN_MOTION_DOT":4.25e-6,"MEAN_MOTION_DDOT":0},{"OBJECT_NAME":"SL-8 R/B","OBJECT_ID":"1968-040B","EPOCH":"2026-04-02T20:47:27.460320","MEAN_MOTION":15.03431381,"ECCENTRICITY":0.0023354,"INCLINATION":74.0288,"RA_OF_ASC_NODE":264.283,"ARG_OF_PERICENTER":78.2368,"MEAN_ANOMALY":282.1439,"EPHEMERIS_TYPE":0,"CLASSIFICATION_TYPE":"U","NORAD_CAT_ID":3230,"ELEMENT_SET_NO":999,"REV_AT_EPOCH":9364,"BSTAR":0.00043545,"MEAN_MOTION_DOT":5.925e-5,"MEAN_MOTION_DDOT":0},{"OBJECT_NAME":"OAO 2","OBJECT_ID":"1968-110A","EPOCH":"2026-04-02T18:58:31.645920","MEAN_MOTION":14.47321708,"ECCENTRICITY":0.000531,"INCLINATION":34.9923,"RA_OF_ASC_NODE":130.6571,"ARG_OF_PERICENTER":25.4659,"MEAN_ANOMALY":334.6293,"EPHEMERIS_TYPE":0,"CLASSIFICATION_TYPE":"U","NORAD_CAT_ID":3597,"ELEMENT_SET_NO":999,"REV_AT_EPOCH":2259,"BSTAR":8.5585e-5,"MEAN_MOTION_DOT":2.99e-6,"MEAN_MOTION_DDOT":0},{"OBJECT_NAME":"ISIS 1","OBJECT_ID":"1969-009A","EPOCH":"2026-04-02T12:37:54.812640","MEAN_MOTION":11.30420283,"ECCENTRICITY":0.17078113,"INCLINATION":88.4496,"RA_OF_ASC_NODE":152.7063,"ARG_OF_PERICENTER":41.0778,"MEAN_ANOMALY":330.6967,"EPHEMERIS_TYPE":0,"CLASSIFICATION_TYPE":"U","NORAD_CAT_ID":3669,"ELEMENT_SET_NO":999,"REV_AT_EPOCH":35122,"BSTAR":0.00010859409,"MEAN_MOTION_DOT":1.7e-6,"MEAN_MOTION_DDOT":0},{"OBJECT_NAME":"SERT 2","OBJECT_ID":"1970-009A","EPOCH":"2026-04-02T13:54:45.025920","MEAN_MOTION":13.58732104,"ECCENTRICITY":0.00057314,"INCLINATION":99.2792,"RA_OF_ASC_NODE":34.3701,"ARG_OF_PERICENTER":101.1851,"MEAN_ANOMALY":72.0799,"EPHEMERIS_TYPE":0,"CLASSIFICATION_TYPE":"U","NORAD_CAT_ID":4327,"ELEMENT_SET_NO":999,"REV_AT_EPOCH":78313,"BSTAR":7.340565e-5,"MEAN_MOTION_DOT":1.2e-7,"MEAN_MOTION_DDOT":0},{"OBJECT_NAME":"SL-3 R/B","OBJECT_ID":"1971-028B","EPOCH":"2026-04-02T19:18:23.452704","MEAN_MOTION":15.63367832,"ECCENTRICITY":0.0015126,"INCLINATION":81.2384,"RA_OF_ASC_NODE":22.2007,"ARG_OF_PERICENTER":187.1674,"MEAN_ANOMALY":172.9366,"EPHEMERIS_TYPE":0,"CLASSIFICATION_TYPE":"U","NORAD_CAT_ID":5118,"ELEMENT_SET_NO":999,"REV_AT_EPOCH":99243,"BSTAR":0.00068945,"MEAN_MOTION_DOT":0.00064159,"MEAN_MOTION_DDOT":0},{"OBJECT_NAME":"ASTEX 1","OBJECT_ID":"1971-089A","EPOCH":"2026-04-02T14:49:50.202624","MEAN_MOTION":14.50794388,"ECCENTRICITY":0.00157944,"INCLINATION":92.7084,"RA_OF_ASC_NODE":159.4926,"ARG_OF_PERICENTER":12.642,"MEAN_ANOMALY":347.5179,"EPHEMERIS_TYPE":0,"CLASSIFICATION_TYPE":"U","NORAD_CAT_ID":5560,"ELEMENT_SET_NO":999,"REV_AT_EPOCH":86577,"BSTAR":0.00014833063,"MEAN_MOTION_DOT":5.84e-6,"MEAN_MOTION_DDOT":0},{"OBJECT_NAME":"SL-8 R/B","OBJECT_ID":"1971-119B","EPOCH":"2026-04-02T19:07:00.325920","MEAN_MOTION":14.38311824,"ECCENTRICITY":0.0546131,"INCLINATION":73.8844,"RA_OF_ASC_NODE":130.644,"ARG_OF_PERICENTER":92.1664,"MEAN_ANOMALY":274.2098,"EPHEMERIS_TYPE":0,"CLASSIFICATION_TYPE":"U","NORAD_CAT_ID":5730,"ELEMENT_SET_NO":999,"REV_AT_EPOCH":65895,"BSTAR":0.00046102,"MEAN_MOTION_DOT":8.816e-5,"MEAN_MOTION_DDOT":0},{"OBJECT_NAME":"OAO 3 (COPERNICUS)","OBJECT_ID":"1972-065A","EPOCH":"2026-04-02T10:59:06.091296","MEAN_MOTION":14.60017606,"ECCENTRICITY":0.00067622,"INCLINATION":35.0046,"RA_OF_ASC_NODE":161.8953,"ARG_OF_PERICENTER":350.0235,"MEAN_ANOMALY":26.9623,"EPHEMERIS_TYPE":0,"CLASSIFICATION_TYPE":"U","NORAD_CAT_ID":6153,"ELEMENT_SET_NO":999,"REV_AT_EPOCH":84967,"BSTAR":0.00010255478,"MEAN_MOTION_DOT":4.79e-6,"MEAN_MOTION_DDOT":0},{"OBJECT_NAME":"ATLAS CENTAUR R/B","OBJECT_ID":"1972-065B","EPOCH":"2026-04-02T11:25:49.543104","MEAN_MOTION":14.77758247,"ECCENTRICITY":0.00338057,"INCLINATION":35.0007,"RA_OF_ASC_NODE":166.3462,"ARG_OF_PERICENTER":211.3969,"MEAN_ANOMALY":148.4712,"EPHEMERIS_TYPE":0,"CLASSIFICATION_TYPE":"U","NORAD_CAT_ID":6155,"ELEMENT_SET_NO":999,"REV_AT_EPOCH":84478,"BSTAR":0.00025506021,"MEAN_MOTION_DOT":1.855e-5,"MEAN_MOTION_DDOT":0},{"OBJECT_NAME":"SL-8 R/B","OBJECT_ID":"1975-112B","EPOCH":"2026-04-02T15:21:38.632608","MEAN_MOTION":14.3821746,"ECCENTRICITY":0.00146569,"INCLINATION":74.0624,"RA_OF_ASC_NODE":334.8579,"ARG_OF_PERICENTER":58.3368,"MEAN_ANOMALY":301.9214,"EPHEMERIS_TYPE":0,"CLASSIFICATION_TYPE":"U","NORAD_CAT_ID":8459,"ELEMENT_SET_NO":999,"REV_AT_EPOCH":63531,"BSTAR":9.7155714e-5,"MEAN_MOTION_DOT":2.69e-6,"MEAN_MOTION_DDOT":0},{"OBJECT_NAME":"SL-3 R/B","OBJECT_ID":"1977-057B","EPOCH":"2026-04-02T19:10:57.774720","MEAN_MOTION":15.46210787,"ECCENTRICITY":0.0007103,"INCLINATION":97.5797,"RA_OF_ASC_NODE":265.7985,"ARG_OF_PERICENTER":187.0239,"MEAN_ANOMALY":173.0911,"EPHEMERIS_TYPE":0,"CLASSIFICATION_TYPE":"U","NORAD_CAT_ID":10114,"ELEMENT_SET_NO":999,"REV_AT_EPOCH":67205,"BSTAR":0.00043655,"MEAN_MOTION_DOT":0.00021404,"MEAN_MOTION_DDOT":0},{"OBJECT_NAME":"SEASAT 1","OBJECT_ID":"1978-064A","EPOCH":"2026-04-02T11:58:08.950080","MEAN_MOTION":14.46181025,"ECCENTRICITY":0.00027077,"INCLINATION":108.0069,"RA_OF_ASC_NODE":175.4555,"ARG_OF_PERICENTER":273.8609,"MEAN_ANOMALY":86.2227,"EPHEMERIS_TYPE":0,"CLASSIFICATION_TYPE":"U","NORAD_CAT_ID":10967,"ELEMENT_SET_NO":999,"REV_AT_EPOCH":50995,"BSTAR":0.00016297753,"MEAN_MOTION_DOT":4.46e-6,"MEAN_MOTION_DDOT":0},{"OBJECT_NAME":"SL-14 R/B","OBJECT_ID":"1979-011B","EPOCH":"2026-04-02T15:47:59.049312","MEAN_MOTION":14.9194101,"ECCENTRICITY":0.0015487,"INCLINATION":82.5217,"RA_OF_ASC_NODE":73.8196,"ARG_OF_PERICENTER":343.2486,"MEAN_ANOMALY":16.822,"EPHEMERIS_TYPE":0,"CLASSIFICATION_TYPE":"U","NORAD_CAT_ID":11267,"ELEMENT_SET_NO":999,"REV_AT_EPOCH":53235,"BSTAR":8.6029e-5,"MEAN_MOTION_DOT":8.97e-6,"MEAN_MOTION_DDOT":0}]
